STARLINK-35962          
1 66518U 25265C   25359.92925846  .00045786  00000+0  10955-2 0  9996
2 66518  42.9997 337.8825 0000824 215.0653 145.0149 15.40734873  5797
STARLINK-35931          
1 66519U 25265D   25359.63858330  .00057835  00000+0  13789-2 0  9994
2 66519  43.0012 339.1375 0001431 261.1916  98.8778 15.40751116  5750
STARLINK-35952          
1 66520U 25265E   25359.93822093  .00060439  00000+0  14401-2 0  9992
2 66520  43.0034 337.9563 0000896 244.2055 115.8709 15.40753774  5791
STARLINK-35915          
1 66521U 25265F   25359.98736661  .00043945  00000+0  10527-2 0  9991
2 66521  42.9994 337.4573 0001947 292.2041  67.8609 15.40713276  5807
STARLINK-35946          
1 66522U 25265G   25359.97168479  .00063724  00000+0  15180-2 0  9994
2 66522  42.9996 337.3377 0001286 250.8263 109.2454 15.40741657  5806
STARLINK-35969          
1 66523U 25265H   25360.02082652  .00050723  00000+0  12114-2 0  9990
2 66523  43.0005 336.8432 0001543 255.9433 104.1252 15.40750288  5818
STARLINK-35687          
1 66524U 25265J   25360.13719792  .00060088  00000+0  14360-2 0  9995
2 66524  42.9998 336.8665 0001719 267.4151  92.6508 15.40666743  5824
STARLINK-35975          
1 66525U 25265K   25359.99856622  .00056412  00000+0  13463-2 0  9991
2 66525  43.0016 337.5449 0001477 258.0507 102.0183 15.40731665  5807
STARLINK-35932          
1 66526U 25265L   25359.01045199  .00046454  00000+0  11109-2 0  9994
2 66526  42.9966 343.0196 0001606 185.7291 174.3547 15.40744752  5651
STARLINK-35935          
1 66527U 25265M   25358.99477253  .00051358  00000+0  12272-2 0  9992
2 66527  43.0014 342.9054 0001109 278.6067  81.4664 15.40730349  5655
STARLINK-35928          
1 66528U 25265N   25360.00002315  .00040499  00000+0  97311-3 0  9993
2 66528  43.0009 336.9035 0001373 266.9451   2.4663 15.40653770  5960
STARLINK-35933          
1 66529U 25265P   25360.00528902  .00056038  00000+0  13362-2 0  9998
2 66529  43.0017 337.5897 0002500 189.6653 170.4156 15.40760164  5803
STARLINK-35961          
1 66530U 25265Q   25359.02837437  .00049931  00000+0  11958-2 0  9999
2 66530  43.0011 343.1606 0001269 237.2199 122.8535 15.40673431  5651
STARLINK-35960          
1 66531U 25265R   25358.95906678  .00014271  00000+0  34806-3 0  9992
2 66531  43.0022 343.5036 0001996 267.1092  92.9536 15.40717857  5644
STARLINK-35914          
1 66532U 25265S   25359.99184498  .00046106  00000+0  11030-2 0  9991
2 66532  43.0011 337.4919 0001472 248.1399 111.9301 15.40736811  5804
STARLINK-35707          
1 66533U 25265T   25359.98512500  .00039896  00000+0  95622-3 0  9998
2 66533  42.9987 337.4395 0000755 217.5918 142.4886 15.40735619  5805
STARLINK-35976          
1 66534U 25265U   25359.65203106  .00046050  00000+0  11029-2 0  9990
2 66534  42.9994 339.2393 0000709  46.7900 313.3016 15.40704484  5758
STARLINK-35514          
1 66535U 25265V   25359.64979108  .00046762  00000+0  11197-2 0  9998
2 66535  42.9987 339.2220 0000768  39.4619 320.6293 15.40705137  5755
STARLINK-35640          
1 66536U 25265W   25359.64082030  .00049627  00000+0  11860-2 0  9998
2 66536  42.9981 339.1529 0002107 267.7327  92.3288 15.40739318  5757
STARLINK-35582          
1 66537U 25265X   25360.02531204  .00067885  00000+0  16171-2 0  9991
2 66537  43.0010 336.8758 0001988 268.8807  91.1822 15.40714266  5815
STARLINK-35577          
1 66538U 25265Y   25359.95824378  .00058427  00000+0  13938-2 0  9999
2 66538  42.9998 337.2322 0001637 266.9815  93.0854 15.40730723  5801
STARLINK-35697          
1 66539U 25265Z   25360.01859189  .00053164  00000+0  12689-2 0  9992
2 66539  43.0033 336.8237 0001413 254.6081 105.4620 15.40753475  5814
STARLINK-35818          
1 66540U 25265AA  25359.16685995  .00071550  00000+0  17049-2 0  9994
2 66540  43.0005 341.6090 0001119 293.9617  66.1123 15.40684909  5681
STARLINK-35796          
1 66541U 25265AB  25359.98960466  .00052232  00000+0  12468-2 0  9990
2 66541  43.0026 337.4735 0001710 272.1306  87.9355 15.40756365  5803
STARLINK-35833          
1 66542U 25265AC  25359.98064250  .00042282  00000+0  10124-2 0  9998
2 66542  42.9990 337.4047 0000600 206.2587 153.8239 15.40741721  5808
STARLINK-35315          
1 66543U 25265AD  25360.16393247  .00058410  00000+0  13911-2 0  9999
2 66543  42.9987 336.1965 0001521 256.9413 103.1274 15.40781885  5838
STARLINK-35728          
1 66544U 25265AE  25359.94928147  .00043263  00000+0  10357-2 0  9998
2 66544  43.0013 337.1629 0001408 271.4749  88.5947 15.40740848  5801
STARLINK-35699          
1 66557U 25268A   25360.16668980 -.01994801  00000+0 -62897-1 0  9998
2 66557  43.0008  42.7784 0000860 287.5226 290.9255 15.35857443  6052
STARLINK-35695          
1 66558U 25268B   25360.16668980 -.01941745  00000+0 -59419-1 0  9994
2 66558  43.0006  42.7423 0001045 274.1835 319.6629 15.36674647  6053
STARLINK-35419          
1 66559U 25268C   25360.16668980 -.02021165  00000+0 -52362-1 0  9991
2 66559  43.0006  42.5664 0001073 256.4813  49.6448 15.41839552  6052
STARLINK-35411          
1 66560U 25268D   25360.16668980 -.02057634  00000+0 -52449-1 0  9999
2 66560  43.0007  42.5456 0001149 253.1154  60.9971 15.42384097  6057
STARLINK-35305          
1 66561U 25268E   25360.16668980 -.02057837  00000+0 -49538-1 0  9990
2 66561  43.0011  42.4922 0001229 258.3201  77.3132 15.44061183  6050
STARLINK-35579          
1 66562U 25268F   25360.16668980 -.02059471  00000+0 -51024-1 0  9990
2 66562  43.0000  42.5175 0001278 259.9143  65.2397 15.43222404  6059
STARLINK-35437          
1 66563U 25268G   25360.16668980 -.02064698  00000+0 -48305-1 0  9996
2 66563  43.0004  42.4681 0001316 257.6997  87.8514 15.44901761  6119
STARLINK-35358          
1 66564U 25268H   25360.16668980 -.02084307  00000+0 -47417-1 0  9999
2 66564  43.0005  42.4445 0001223 264.8501  90.0593 15.45746132  6053
STARLINK-35893          
1 66565U 25268J   25360.16668980 -.02008027  00000+0 -44209-1 0  9991
2 66565  43.0000  42.4231 0001137 276.2321  87.4798 15.46555161  5892
STARLINK-35871          
1 66566U 25268K   25360.16668980 -.02022630  00000+0 -43745-1 0  9992
2 66566  43.0002  42.4081 0001120 274.8714  94.8278 15.47089785  5946
STARLINK-35825          
1 66567U 25268L   25358.23325008  .00130148  00000+0  17686-2 0  9995
2 66567  43.0005  53.7242 0003386 293.6521  66.3986 15.56426808  6419
STARLINK-35803          
1 66568U 25268M   25360.16668980 -.01728616  00000+0 -35086-1 0  9999
2 66568  42.9996  42.4338 0001161 273.3938  85.4761 15.48908203  6052
STARLINK-35835          
1 66569U 25268N   25360.16668980 -.02060057  00000+0 -41475-1 0  9998
2 66569  43.0000  42.3598 0001322 267.4244 121.8356 15.49180016  6051
STARLINK-35834          
1 66570U 25268P   25360.16668980 -.02027092  00000+0 -65741-1 0  9994
2 66570  43.0007  42.7730 0000935 283.2056 296.5969 15.34467637  6059
STARLINK-35836          
1 66571U 25268Q   25360.16668980 -.01941531  00000+0 -62150-1 0  9998
2 66571  43.0010  42.7339 0001034 271.2964 324.8309 15.35287136  6008
STARLINK-35870          
1 66572U 25268R   25360.16668980 -.01978997  00000+0 -60543-1 0  9999
2 66572  43.0005  42.6728 0000951 270.6867 350.9952 15.36754372  6057
STARLINK-35650          
1 66573U 25268S   25360.16668980 -.01977688  00000+0 -58862-1 0  9997
2 66573  43.0001  42.6351 0000997 265.0743  11.3988 15.37591769  6054
STARLINK-35812          
1 66574U 25268T   25360.16668980 -.02003528  00000+0 -58084-1 0  9998
2 66574  43.0011  42.6010 0000936 266.4572  24.2485 15.38439101  6053
STARLINK-35810          
1 66575U 25268U   25360.16668980 -.02020832  00000+0 -57029-1 0  9994
2 66575  43.0003  42.5684 0001096 256.0036  48.3676 15.39283568  6053
STARLINK-35814          
1 66576U 25268V   25360.16668980 -.02056303  00000+0 -56533-1 0  9996
2 66576  43.0000  42.5338 0001237 259.9169  57.5644 15.40133480  6059
STARLINK-35815          
1 66577U 25268W   25360.16668980 -.02051968  00000+0 -53717-1 0  9990
2 66577  43.0005  42.4853 0001418 257.8565  79.6092 15.41583453  6001
STARLINK-35743          
1 66578U 25268X   25360.16668980 -.01964258  00000+0 -49906-1 0  9990
2 66578  43.0001  42.4566 0001471 251.4070  97.7444 15.42309296  5833
STARLINK-35868          
1 66579U 25268Y   25360.16668980 -.02062766  00000+0 -51048-1 0  9995
2 66579  43.0010  42.4300 0001304 265.8295  94.2294 15.43261580  5887
STARLINK-35872          
1 66580U 25268Z   25360.16668980 -.02056669  00000+0 -49445-1 0  9990
2 66580  43.0003  42.4052 0001358 261.0289 109.4854 15.44096169  6001
STARLINK-35744          
1 66581U 25268AA  25360.16668980 -.02032196  00000+0 -47408-1 0  9997
2 66581  43.0006  42.3793 0001213 272.3064 108.1026 15.44928558  5958
STARLINK-35746          
1 66582U 25268AB  25360.16668980 -.02046676  00000+0 -45437-1 0  9996
2 66582  43.0003  42.3439 0001349 271.1086 123.7139 15.46381530  5957
STARLINK-35941          
1 66583U 25268AC  25360.16668980 -.02071425  00000+0 -44699-1 0  9996
2 66583  43.0004  42.3222 0001539 269.2172 133.9609 15.47234558  6004
STARLINK-35939          
1 66584U 25268AD  25360.16668980 -.02062934  00000+0 -43249-1 0  9992
2 66584  43.0000  42.3044 0001228 273.4907 137.4047 15.48043223  6004
STARLINK-35963          
1 66585U 25268AE  25360.16668980 -.01965773  00000+0 -64132-1 0  9999
2 66585  43.0006  42.6887 0000964 274.5202 339.0431 15.34745728  6051
STARLINK-36076          
1 66588U 25270A   25359.63845877  .00045829  00000+0  10964-2 0  9990
2 66588  42.9959 118.4597 0000525 283.3048  76.7750 15.40737993  6330
STARLINK-35447          
1 66589U 25270B   25359.62052964  .00033516  00000+0  80611-3 0  9994
2 66589  43.0008 118.3206 0001173 257.0782 102.9943 15.40698840  6442
STARLINK-35429          
1 66590U 25270C   25359.73450915  .00072845  00000+0  17332-2 0  9993
2 66590  43.0020 117.4547 0001639 273.6487  86.4182 15.40721997  6462
